{"type": "FeatureCollection", "features": [ {"type": "Feature", "properties": {"norad_id": 34409, "name": "COSMOS 2251 DEB", "group": "cosmos-2251-debris", "lat": -18.548256545626145, "lon": 110.49023475272374, "alt_km": 756.4983913109027, "timestamp": "2025-12-24T05:51:20.003678+00:00", "meta": {"OBJECT_NAME": "COSMOS 2251 DEB", "OBJECT_ID": "1993-036RA", "EPOCH": "2025-12-23T13:17:14.817408", "MEAN_MOTION": 14.5805226, "ECCENTRICITY": 0.00803454, "INCLINATION": 74.0637, "RA_OF_ASC_NODE": 286.2993, "ARG_OF_PERICENTER": 357.8117, "MEAN_ANOMALY": 179.668, "EPHEMERIS_TYPE": 0, "CLASSIFICATION_TYPE": "U", "NORAD_CAT_ID": 34409, "ELEMENT_SET_NO": 999, "REV_AT_EPOCH": 89350, "BSTAR": 0.00023055331, "MEAN_MOTION_DOT": 1.077e-05, "MEAN_MOTION_DDOT": 0}, "tle": {"line1": "1 34409U 93036RA  25357.55364372  .00001077  00000+0  23055-3 0  9990", "line2": "2 34409  74.0637 286.2993 0080345 357.8117 179.6680 14.58052260893505"}}, "geometry": {"type": "Point", "coordinates": [110.49023475272374, -18.548256545626145]}}, {"type": "Feature", "properties": {"norad_id": 34410, "name": "COSMOS 2251 DEB", "group": "cosmos-2251-debris", "lat": -70.7612958447733, "lon": 113.98308127973773, "alt_km": 527.4928573952866, "timestamp": "2025-12-24T05:51:20.003688+00:00", "meta": {"OBJECT_NAME": "COSMOS 2251 DEB", "OBJECT_ID": "1993-036RB", "EPOCH": "2025-12-23T22:27:28.430208", "MEAN_MOTION": 15.19916075, "ECCENTRICITY": 0.00211965, "INCLINATION": 73.7358, "RA_OF_ASC_NODE": 237.8647, "ARG_OF_PERICENTER": 77.2905, "MEAN_ANOMALY": 296.4241, "EPHEMERIS_TYPE": 0, "CLASSIFICATION_TYPE": "U", "NORAD_CAT_ID": 34410, "ELEMENT_SET_NO": 999, "REV_AT_EPOCH": 89944, "BSTAR": 0.0020661193, "MEAN_MOTION_DOT": 0.00044909, "MEAN_MOTION_DDOT": 0}, "tle": {"line1": "1 34410U 93036RB  25357.93574572  .00044909  00000+0  20661-2 0  9999", "line2": "2 34410  73.7358 237.8647 0021196  77.2905 296.4241 15.19916075899449"}}, "geometry": {"type": "Point", "coordinates": [113.98308127973773, -70.7612958447733]}}, {"type": "Feature", "properties": {"norad_id": 34412, "name": "COSMOS 2251 DEB", "group": "cosmos-2251-debris", "lat": -39.25872343889739, "lon": -70.63619969036084, "alt_km": 707.1100513780775, "timestamp": "2025-12-24T05:51:20.003699+00:00", "meta": {"OBJECT_NAME": "COSMOS 2251 DEB", "OBJECT_ID": "1993-036RD", "EPOCH": "2025-12-23T21:44:48.517440", "MEAN_MOTION": 14.47269704, "ECCENTRICITY": 0.01876357, "INCLINATION": 73.9489, "RA_OF_ASC_NODE": 303.6081, "ARG_OF_PERICENTER": 36.0926, "MEAN_ANOMALY": 325.2728, "EPHEMERIS_TYPE": 0, "CLASSIFICATION_TYPE": "U", "NORAD_CAT_ID": 34412, "ELEMENT_SET_NO": 999, "REV_AT_EPOCH": 87812, "BSTAR": 0.0017123032, "MEAN_MOTION_DOT": 7.791e-05, "MEAN_MOTION_DDOT": 0}, "tle": {"line1": "1 34412U 93036RD  25357.90611710  .00007791  00000+0  17123-2 0  9991", "line2": "2 34412  73.9489 303.6081 0187635  36.0926 325.2728 14.47269704878122"}}, "geometry": {"type": "Point", "coordinates": [-70.63619969036084, -39.25872343889739]}}, {"type": "Feature", "properties": {"norad_id": 34413, "name": "COSMOS 2251 DEB", "group": "cosmos-2251-debris", "lat": 61.72723285603276, "lon": -83.84606938823417, "alt_km": 807.8090504795218, "timestamp": "2025-12-24T05:51:20.003710+00:00", "meta": {"OBJECT_NAME": "COSMOS 2251 DEB", "OBJECT_ID": "1993-036RE", "EPOCH": "2025-12-23T22:53:53.966976", "MEAN_MOTION": 14.29177929, "ECCENTRICITY": 0.00909589, "INCLINATION": 74.0301, "RA_OF_ASC_NODE": 244.5101, "ARG_OF_PERICENTER": 318.9315, "MEAN_ANOMALY": 55.6061, "EPHEMERIS_TYPE": 0, "CLASSIFICATION_TYPE": "U", "NORAD_CAT_ID": 34413, "ELEMENT_SET_NO": 999, "REV_AT_EPOCH": 87291, "BSTAR": 0.0014180042, "MEAN_MOTION_DOT": 3.739e-05, "MEAN_MOTION_DDOT": 0}, "tle": {"line1": "1 34413U 93036RE  25357.95409684  .00003739  00000+0  14180-2 0  9990", "line2": "2 34413  74.0301 244.5101 0090958 318.9315  55.6061 14.29177929872911"}}, "geometry": {"type": "Point", "coordinates": [-83.84606938823417, 61.72723285603276]}}, {"type": "Feature", "properties": {"norad_id": 34420, "name": "COSMOS 2251 DEB", "group": "cosmos-2251-debris", "lat": -19.364835815103383, "lon": 75.93202065249021, "alt_km": 728.0104526481873, "timestamp": "2025-12-24T05:51:20.003720+00:00", "meta": {"OBJECT_NAME": "COSMOS 2251 DEB", "OBJECT_ID": "1993-036RM", "EPOCH": "2025-12-23T12:01:49.225152", "MEAN_MOTION": 14.6832771, "ECCENTRICITY": 0.01061479, "INCLINATION": 74.0333, "RA_OF_ASC_NODE": 83.1434, "ARG_OF_PERICENTER": 201.7297, "MEAN_ANOMALY": 173.0534, "EPHEMERIS_TYPE": 0, "CLASSIFICATION_TYPE": "U", "NORAD_CAT_ID": 34420, "ELEMENT_SET_NO": 999, "REV_AT_EPOCH": 89928, "BSTAR": 0.00020696861, "MEAN_MOTION_DOT": 1.266e-05, "MEAN_MOTION_DDOT": 0}, "tle": {"line1": "1 34420U 93036RM  25357.50126418  .00001266  00000+0  20697-3 0  9994", "line2": "2 34420  74.0333  83.1434 0106147 201.7297 173.0534 14.68327710899283"}}, "geometry": {"type": "Point", "coordinates": [75.93202065249021, -19.364835815103383]}}, {"type": "Feature", "properties": {"norad_id": 34425, "name": "COSMOS 2251 DEB", "group": "cosmos-2251-debris", "lat": 7.6031133323494915, "lon": -149.72659487918196, "alt_km": 671.3111976612026, "timestamp": "2025-12-24T05:51:20.003730+00:00", "meta": {"OBJECT_NAME": "COSMOS 2251 DEB", "OBJECT_ID": "1993-036RS", "EPOCH": "2025-12-23T12:39:07.039584", "MEAN_MOTION": 14.62182484, "ECCENTRICITY": 0.0024192, "INCLINATION": 74.0191, "RA_OF_ASC_NODE": 33.8391, "ARG_OF_PERICENTER": 157.2466, "MEAN_ANOMALY": 202.9779, "EPHEMERIS_TYPE": 0, "CLASSIFICATION_TYPE": "U", "NORAD_CAT_ID": 34425, "ELEMENT_SET_NO": 999, "REV_AT_EPOCH": 88898, "BSTAR": 0.00050088992, "MEAN_MOTION_DOT": 2.502e-05, "MEAN_MOTION_DDOT": 0}, "tle": {"line1": "1 34425U 93036RS  25357.52716481  .00002502  00000+0  50089-3 0  9998", "line2": "2 34425  74.0191  33.8391 0024192 157.2466 202.9779 14.62182484888985"}}, "geometry": {"type": "Point", "coordinates": [-149.72659487918196, 7.6031133323494915]}}, {"type": "Feature", "properties": {"norad_id": 34429, "name": "COSMOS 2251 DEB", "group": "cosmos-2251-debris", "lat": 12.197405204460814, "lon": 146.46462425220292, "alt_km": 420.2891262480207, "timestamp": "2025-12-24T05:51:20.003740+00:00", "meta": {"OBJECT_NAME": "COSMOS 2251 DEB", "OBJECT_ID": "1993-036RW", "EPOCH": "2025-12-23T11:24:33.759936", "MEAN_MOTION": 15.46114926, "ECCENTRICITY": 0.00127415, "INCLINATION": 73.9691, "RA_OF_ASC_NODE": 144.5841, "ARG_OF_PERICENTER": 346.525, "MEAN_ANOMALY": 69.5569, "EPHEMERIS_TYPE": 0, "CLASSIFICATION_TYPE": "U", "NORAD_CAT_ID": 34429, "ELEMENT_SET_NO": 999, "REV_AT_EPOCH": 89614, "BSTAR": 0.0053841018, "MEAN_MOTION_DOT": 0.00273992, "MEAN_MOTION_DDOT": 0}, "tle": {"line1": "1 34429U 93036RW  25357.47539074  .00273992  00000+0  53841-2 0  9998", "line2": "2 34429  73.9691 144.5841 0012741 346.5250  69.5569 15.46114926896143"}}, "geometry": {"type": "Point", "coordinates": [146.46462425220292, 12.197405204460814]}}, {"type": "Feature", "properties": {"norad_id": 34430, "name": "COSMOS 2251 DEB", "group": "cosmos-2251-debris", "lat": 69.74864878476889, "lon": 51.326891847905, "alt_km": 769.5987146194348, "timestamp": "2025-12-24T05:51:20.003751+00:00", "meta": {"OBJECT_NAME": "COSMOS 2251 DEB", "OBJECT_ID": "1993-036RX", "EPOCH": "2025-12-23T21:02:40.167456", "MEAN_MOTION": 14.39664386, "ECCENTRICITY": 0.0060853, "INCLINATION": 74.0519, "RA_OF_ASC_NODE": 282.8133, "ARG_OF_PERICENTER": 349.8683, "MEAN_ANOMALY": 10.124, "EPHEMERIS_TYPE": 0, "CLASSIFICATION_TYPE": "U", "NORAD_CAT_ID": 34430, "ELEMENT_SET_NO": 999, "REV_AT_EPOCH": 88115, "BSTAR": 0.00043185745, "MEAN_MOTION_DOT": 1.354e-05, "MEAN_MOTION_DDOT": 0}, "tle": {"line1": "1 34430U 93036RX  25357.87685379  .00001354  00000+0  43186-3 0  9997", "line2": "2 34430  74.0519 282.8133 0060853 349.8683  10.1240 14.39664386881153"}}, "geometry": {"type": "Point", "coordinates": [51.326891847905, 69.74864878476889]}}, {"type": "Feature", "properties": {"norad_id": 34431, "name": "COSMOS 2251 DEB", "group": "cosmos-2251-debris", "lat": -73.30609317029923, "lon": 82.17974940015702, "alt_km": 838.6679520899916, "timestamp": "2025-12-24T05:51:20.003760+00:00", "meta": {"OBJECT_NAME": "COSMOS 2251 DEB", "OBJECT_ID": "1993-036RY", "EPOCH": "2025-12-23T11:46:23.340288", "MEAN_MOTION": 14.28809267, "ECCENTRICITY": 0.00677696, "INCLINATION": 74.0738, "RA_OF_ASC_NODE": 155.7389, "ARG_OF_PERICENTER": 138.5759, "MEAN_ANOMALY": 222.0557, "EPHEMERIS_TYPE": 0, "CLASSIFICATION_TYPE": "U", "NORAD_CAT_ID": 34431, "ELEMENT_SET_NO": 999, "REV_AT_EPOCH": 87296, "BSTAR": 0.00062673428, "MEAN_MOTION_DOT": 1.594e-05, "MEAN_MOTION_DDOT": 0}, "tle": {"line1": "1 34431U 93036RY  25357.49054792  .00001594  00000+0  62673-3 0  9993", "line2": "2 34431  74.0738 155.7389 0067769 138.5759 222.0557 14.28809267872969"}}, "geometry": {"type": "Point", "coordinates": [82.17974940015702, -73.30609317029923]}}, {"type": "Feature", "properties": {"norad_id": 34432, "name": "COSMOS 2251 DEB", "group": "cosmos-2251-debris", "lat": -62.632718552593815, "lon": 47.960232051750445, "alt_km": 972.905554440913, "timestamp": "2025-12-24T05:51:20.003771+00:00", "meta": {"OBJECT_NAME": "COSMOS 2251 DEB", "OBJECT_ID": "1993-036RZ", "EPOCH": "2025-12-22T17:16:08.561856", "MEAN_MOTION": 14.02946271, "ECCENTRICITY": 0.0181626, "INCLINATION": 73.8281, "RA_OF_ASC_NODE": 84.7419, "ARG_OF_PERICENTER": 165.8591, "MEAN_ANOMALY": 348.5505, "EPHEMERIS_TYPE": 0, "CLASSIFICATION_TYPE": "U", "NORAD_CAT_ID": 34432, "ELEMENT_SET_NO": 999, "REV_AT_EPOCH": 85824, "BSTAR": 0.0009096832, "MEAN_MOTION_DOT": 1.607e-05, "MEAN_MOTION_DDOT": 0}, "tle": {"line1": "1 34432U 93036RZ  25356.71954354  .00001607  00000+0  90968-3 0  9994", "line2": "2 34432  73.8281  84.7419 0181626 165.8591 348.5505 14.02946271858242"}}, "geometry": {"type": "Point", "coordinates": [47.960232051750445, -62.632718552593815]}}]}